[{"OBJECT_NAME":"STARLINK-2459","OBJECT_ID":"2021-027AD","EPOCH":"2025-09-01T09:03:02.995200","MEAN_MOTION":15.06400652,"ECCENTRICITY":9.808e-5,"INCLINATION":53.0548,"RA_OF_ASC_NODE":281.4677,"ARG_OF_PERICENTER":82.3429,"MEAN_ANOMALY":277.7671,"EPHEMERIS_TYPE":0,"CLASSIFICATION_TYPE":"U","NORAD_CAT_ID":48119,"ELEMENT_SET_NO":999,"REV_AT_EPOCH":24415,"BSTAR":0.00014614671,"MEAN_MOTION_DOT":1.896e-5,"MEAN_MOTION_DDOT":0},{"OBJECT_NAME":"STARLINK-2460","OBJECT_ID":"2021-027AE","EPOCH":"2025-09-01T10:47:54.803904","MEAN_MOTION":15.06389072,"ECCENTRICITY":0.00012964,"INCLINATION":53.0547,"RA_OF_ASC_NODE":301.1517,"ARG_OF_PERICENTER":89.4676,"MEAN_ANOMALY":270.6462,"EPHEMERIS_TYPE":0,"CLASSIFICATION_TYPE":"U","NORAD_CAT_ID":48120,"ELEMENT_SET_NO":999,"REV_AT_EPOCH":24390,"BSTAR":8.6847106e-5,"MEAN_MOTION_DOT":1.012e-5,"MEAN_MOTION_DDOT":0},{"OBJECT_NAME":"STARLINK-2462","OBJECT_ID":"2021-027AF","EPOCH":"2025-09-01T10:06:46.274688","MEAN_MOTION":15.06391843,"ECCENTRICITY":0.00010331,"INCLINATION":53.0543,"RA_OF_ASC_NODE":291.2819,"ARG_OF_PERICENTER":94.2834,"MEAN_ANOMALY":265.8273,"EPHEMERIS_TYPE":0,"CLASSIFICATION_TYPE":"U","NORAD_CAT_ID":48121,"ELEMENT_SET_NO":999,"REV_AT_EPOCH":24402,"BSTAR":-5.3811733e-5,"MEAN_MOTION_DOT":-1.083e-5,"MEAN_MOTION_DDOT":0},{"OBJECT_NAME":"STARLINK-2464","OBJECT_ID":"2021-027AH","EPOCH":"2025-09-01T10:18:43.379136","MEAN_MOTION":15.06394884,"ECCENTRICITY":0.00010984,"INCLINATION":53.0539,"RA_OF_ASC_NODE":281.2391,"ARG_OF_PERICENTER":98.7943,"MEAN_ANOMALY":261.317,"EPHEMERIS_TYPE":0,"CLASSIFICATION_TYPE":"U","NORAD_CAT_ID":48123,"ELEMENT_SET_NO":999,"REV_AT_EPOCH":24417,"BSTAR":0.00050975208,"MEAN_MOTION_DOT":7.318e-5,"MEAN_MOTION_DDOT":0},{"OBJECT_NAME":"STARLINK-2465","OBJECT_ID":"2021-027AJ","EPOCH":"2025-09-01T10:17:24.594432","MEAN_MOTION":15.06389329,"ECCENTRICITY":0.00014415,"INCLINATION":53.0552,"RA_OF_ASC_NODE":291.2484,"ARG_OF_PERICENTER":94.7019,"MEAN_ANOMALY":265.4135,"EPHEMERIS_TYPE":0,"CLASSIFICATION_TYPE":"U","NORAD_CAT_ID":48124,"ELEMENT_SET_NO":999,"REV_AT_EPOCH":24402,"BSTAR":0.00022553,"MEAN_MOTION_DOT":3.078e-5,"MEAN_MOTION_DDOT":0},{"OBJECT_NAME":"STARLINK-2466","OBJECT_ID":"2021-027AK","EPOCH":"2025-09-01T10:37:20.226144","MEAN_MOTION":15.06393872,"ECCENTRICITY":0.00012951,"INCLINATION":53.0549,"RA_OF_ASC_NODE":301.4252,"ARG_OF_PERICENTER":91.8935,"MEAN_ANOMALY":268.2202,"EPHEMERIS_TYPE":0,"CLASSIFICATION_TYPE":"U","NORAD_CAT_ID":48125,"ELEMENT_SET_NO":999,"REV_AT_EPOCH":24389,"BSTAR":0.00013840457,"MEAN_MOTION_DOT":1.78e-5,"MEAN_MOTION_DDOT":0},{"OBJECT_NAME":"STARLINK-2467","OBJECT_ID":"2021-027AL","EPOCH":"2025-09-01T09:30:56.135520","MEAN_MOTION":15.06411258,"ECCENTRICITY":0.00013533,"INCLINATION":53.0529,"RA_OF_ASC_NODE":281.3942,"ARG_OF_PERICENTER":79.5426,"MEAN_ANOMALY":280.5716,"EPHEMERIS_TYPE":0,"CLASSIFICATION_TYPE":"U","NORAD_CAT_ID":48126,"ELEMENT_SET_NO":999,"REV_AT_EPOCH":24417,"BSTAR":0.00031730887,"MEAN_MOTION_DOT":4.449e-5,"MEAN_MOTION_DDOT":0},{"OBJECT_NAME":"STARLINK-2468","OBJECT_ID":"2021-027AM","EPOCH":"2025-09-01T10:53:12.606432","MEAN_MOTION":15.06402331,"ECCENTRICITY":0.00012543,"INCLINATION":53.0541,"RA_OF_ASC_NODE":301.1373,"ARG_OF_PERICENTER":85.1356,"MEAN_ANOMALY":274.9776,"EPHEMERIS_TYPE":0,"CLASSIFICATION_TYPE":"U","NORAD_CAT_ID":48127,"ELEMENT_SET_NO":999,"REV_AT_EPOCH":24389,"BSTAR":0.00032376822,"MEAN_MOTION_DOT":4.545e-5,"MEAN_MOTION_DDOT":0},{"OBJECT_NAME":"STARLINK-2469","OBJECT_ID":"2021-027AN","EPOCH":"2025-09-01T10:25:21.794592","MEAN_MOTION":15.06397486,"ECCENTRICITY":0.000123,"INCLINATION":53.0541,"RA_OF_ASC_NODE":231.304,"ARG_OF_PERICENTER":84.673,"MEAN_ANOMALY":275.44,"EPHEMERIS_TYPE":0,"CLASSIFICATION_TYPE":"U","NORAD_CAT_ID":48128,"ELEMENT_SET_NO":999,"REV_AT_EPOCH":24486,"BSTAR":0.00014535988,"MEAN_MOTION_DOT":1.884e-5,"MEAN_MOTION_DDOT":0},{"OBJECT_NAME":"STARLINK-2471","OBJECT_ID":"2021-027AP","EPOCH":"2025-09-01T10:42:36.180576","MEAN_MOTION":15.06392821,"ECCENTRICITY":0.00014668,"INCLINATION":53.0551,"RA_OF_ASC_NODE":301.1666,"ARG_OF_PERICENTER":92.6954,"MEAN_ANOMALY":267.4202,"EPHEMERIS_TYPE":0,"CLASSIFICATION_TYPE":"U","NORAD_CAT_ID":48129,"ELEMENT_SET_NO":999,"REV_AT_EPOCH":24389,"BSTAR":9.4547231e-5,"MEAN_MOTION_DOT":1.127e-5,"MEAN_MOTION_DDOT":0},{"OBJECT_NAME":"STARLINK-2472","OBJECT_ID":"2021-027AQ","EPOCH":"2025-09-01T11:43:04.686816","MEAN_MOTION":15.0639188,"ECCENTRICITY":0.00014562,"INCLINATION":53.0551,"RA_OF_ASC_NODE":306.5255,"ARG_OF_PERICENTER":77.3693,"MEAN_ANOMALY":282.7459,"EPHEMERIS_TYPE":0,"CLASSIFICATION_TYPE":"U","NORAD_CAT_ID":48130,"ELEMENT_SET_NO":999,"REV_AT_EPOCH":24382,"BSTAR":9.9441901e-5,"MEAN_MOTION_DOT":1.2e-5,"MEAN_MOTION_DDOT":0},{"OBJECT_NAME":"STARLINK-2473","OBJECT_ID":"2021-027AR","EPOCH":"2025-09-01T09:20:20.365440","MEAN_MOTION":15.06395408,"ECCENTRICITY":0.00014747,"INCLINATION":53.0538,"RA_OF_ASC_NODE":281.4255,"ARG_OF_PERICENTER":85.4345,"MEAN_ANOMALY":274.6813,"EPHEMERIS_TYPE":0,"CLASSIFICATION_TYPE":"U","NORAD_CAT_ID":48131,"ELEMENT_SET_NO":999,"REV_AT_EPOCH":24416,"BSTAR":0.00042427589,"MEAN_MOTION_DOT":6.043e-5,"MEAN_MOTION_DDOT":0},{"OBJECT_NAME":"STARLINK-2474","OBJECT_ID":"2021-027AS","EPOCH":"2025-09-01T10:26:40.821216","MEAN_MOTION":15.06393229,"ECCENTRICITY":0.00012668,"INCLINATION":53.055,"RA_OF_ASC_NODE":301.2194,"ARG_OF_PERICENTER":90.8508,"MEAN_ANOMALY":269.2626,"EPHEMERIS_TYPE":0,"CLASSIFICATION_TYPE":"U","NORAD_CAT_ID":48132,"ELEMENT_SET_NO":999,"REV_AT_EPOCH":24388,"BSTAR":-1.7657574e-5,"MEAN_MOTION_DOT":-5.44e-6,"MEAN_MOTION_DDOT":0},{"OBJECT_NAME":"STARLINK-2475","OBJECT_ID":"2021-027AT","EPOCH":"2025-09-01T10:21:21.934368","MEAN_MOTION":15.06401178,"ECCENTRICITY":0.00013114,"INCLINATION":53.0543,"RA_OF_ASC_NODE":301.2355,"ARG_OF_PERICENTER":85.3681,"MEAN_ANOMALY":274.7458,"EPHEMERIS_TYPE":0,"CLASSIFICATION_TYPE":"U","NORAD_CAT_ID":48133,"ELEMENT_SET_NO":999,"REV_AT_EPOCH":24389,"BSTAR":0.00013104914,"MEAN_MOTION_DOT":1.671e-5,"MEAN_MOTION_DDOT":0},{"OBJECT_NAME":"STARLINK-2476","OBJECT_ID":"2021-027AU","EPOCH":"2025-09-01T11:35:41.047008","MEAN_MOTION":15.06388877,"ECCENTRICITY":0.00012602,"INCLINATION":53.0546,"RA_OF_ASC_NODE":301.0019,"ARG_OF_PERICENTER":80.3361,"MEAN_ANOMALY":279.777,"EPHEMERIS_TYPE":0,"CLASSIFICATION_TYPE":"U","NORAD_CAT_ID":48134,"ELEMENT_SET_NO":999,"REV_AT_EPOCH":24389,"BSTAR":0.00015896334,"MEAN_MOTION_DOT":2.086e-5,"MEAN_MOTION_DDOT":0},{"OBJECT_NAME":"STARLINK-2478","OBJECT_ID":"2021-027AV","EPOCH":"2025-09-01T11:37:41.953440","MEAN_MOTION":15.06391708,"ECCENTRICITY":0.00012804,"INCLINATION":53.0553,"RA_OF_ASC_NODE":306.161,"ARG_OF_PERICENTER":93.5136,"MEAN_ANOMALY":266.6,"EPHEMERIS_TYPE":0,"CLASSIFICATION_TYPE":"U","NORAD_CAT_ID":48135,"ELEMENT_SET_NO":999,"REV_AT_EPOCH":24382,"BSTAR":-4.8749178e-5,"MEAN_MOTION_DOT":-1.007e-5,"MEAN_MOTION_DDOT":0}]
