STARLINK-2459           
1 48119U 21027AD  25244.37711800  .00001896  00000+0  14615-3 0  9992
2 48119  53.0548 281.4677 0000980  82.3429 277.7671 15.06400652244152
STARLINK-2460           
1 48120U 21027AE  25244.44993986  .00001012  00000+0  86847-4 0  9996
2 48120  53.0547 301.1517 0001296  89.4676 270.6462 15.06389072243903
STARLINK-2462           
1 48121U 21027AF  25244.42136892 -.00001083  00000+0 -53812-4 0  9996
2 48121  53.0543 291.2819 0001033  94.2834 265.8273 15.06391843244022
STARLINK-2464           
1 48123U 21027AH  25244.42966874  .00007318  00000+0  50975-3 0  9990
2 48123  53.0539 281.2391 0001098  98.7943 261.3170 15.06394884244175
STARLINK-2465           
1 48124U 21027AJ  25244.42875688  .00003078  00000+0  22553-3 0  9993
2 48124  53.0552 291.2484 0001441  94.7019 265.4135 15.06389329244025
STARLINK-2466           
1 48125U 21027AK  25244.44259521  .00001780  00000+0  13840-3 0  9995
2 48125  53.0549 301.4252 0001295  91.8935 268.2202 15.06393872243899
STARLINK-2467           
1 48126U 21027AL  25244.39648305  .00004449  00000+0  31731-3 0  9996
2 48126  53.0529 281.3942 0001353  79.5426 280.5716 15.06411258244171
STARLINK-2468           
1 48127U 21027AM  25244.45361813  .00004545  00000+0  32377-3 0  9994
2 48127  53.0541 301.1373 0001254  85.1356 274.9776 15.06402331243893
STARLINK-2469           
1 48128U 21027AN  25244.43428003  .00001884  00000+0  14536-3 0  9998
2 48128  53.0541 231.3040 0001230  84.6730 275.4400 15.06397486244865
STARLINK-2471           
1 48129U 21027AP  25244.44625209  .00001127  00000+0  94547-4 0  9998
2 48129  53.0551 301.1666 0001466  92.6954 267.4202 15.06392821243896
STARLINK-2472           
1 48130U 21027AQ  25244.48824869  .00001200  00000+0  99442-4 0  9998
2 48130  53.0551 306.5255 0001456  77.3693 282.7459 15.06391880243821
STARLINK-2473           
1 48131U 21027AR  25244.38912460  .00006043  00000+0  42428-3 0  9994
2 48131  53.0538 281.4255 0001474  85.4345 274.6813 15.06395408244164
STARLINK-2474           
1 48132U 21027AS  25244.43519469 -.00000544  00000+0 -17658-4 0  9993
2 48132  53.0550 301.2194 0001266  90.8508 269.2626 15.06393229243881
STARLINK-2475           
1 48133U 21027AT  25244.43150387  .00001671  00000+0  13105-3 0  9996
2 48133  53.0543 301.2355 0001311  85.3681 274.7458 15.06401178243893
STARLINK-2476           
1 48134U 21027AU  25244.48311397  .00002086  00000+0  15896-3 0  9992
2 48134  53.0546 301.0019 0001260  80.3361 279.7770 15.06388877243897
STARLINK-2478           
1 48135U 21027AV  25244.48451335 -.00001007  00000+0 -48749-4 0  9998
2 48135  53.0553 306.1610 0001280  93.5136 266.6000 15.06391708243828
